start=new Date('2021-11-18T00:00:00.000Z').valueOf();
sats=[{"SITE":"AFETR","COUNTRY_CODE":"US","PERIOD":"95.593","LAUNCH_DATE":"2021-03-14","SEMIMAJOR_AXIS":"6925.397","OBJECT_ID":"2021-021V","REF_FRAME":"TEME","EPHEMERIS_TYPE":"0","MEAN_MOTION_DDOT":"0.0000000000000","PERIAPSIS":"546.052","ECCENTRICITY":"0.00017460","TLE_LINE1":"1 47879U 21021V   21321.86859463  .00005952  00000-0  41829-3 0  9997","ELEMENT_SET_NO":"999","MEAN_ELEMENT_THEORY":"SGP4","ARG_OF_PERICENTER":"85.0332","MEAN_MOTION":"15.06384338","CENTER_NAME":"EARTH","MEAN_ANOMALY":"275.0857","MEAN_MOTION_DOT":"0.00005952","REV_AT_EPOCH":"3909","EPOCH":"2021-11-17T20:50:46.576032","FILE":"3217982","OBJECT_NAME":"STARLINK-2336","RA_OF_ASC_NODE":"147.2978","RCS_SIZE":"LARGE","TLE_LINE2":"2 47879  53.0556 147.2978 0001746  85.0332 275.0857 15.06384338 39094","TIME_SYSTEM":"UTC","NORAD_CAT_ID":"47879","DECAY_DATE":null,"OBJECT_TYPE":"PAYLOAD","APOAPSIS":"548.471","BSTAR":"0.00041829000000","CLASSIFICATION_TYPE":"U","INCLINATION":"53.0556","GP_ID":"189977490"},{"REF_FRAME":"TEME","OBJECT_ID":"2021-021W","MEAN_MOTION_DDOT":"0.0000000000000","PERIAPSIS":"546.224","EPHEMERIS_TYPE":"0","SITE":"AFETR","COUNTRY_CODE":"US","LAUNCH_DATE":"2021-03-14","SEMIMAJOR_AXIS":"6925.398","PERIOD":"95.593","CENTER_NAME":"EARTH","MEAN_ANOMALY":"274.2270","EPOCH":"2021-11-17T20:15:35.045568","REV_AT_EPOCH":"3898","MEAN_MOTION_DOT":"0.00000507","MEAN_ELEMENT_THEORY":"SGP4","ECCENTRICITY":"0.00015010","ELEMENT_SET_NO":"999","TLE_LINE1":"1 47880U 21021W   21321.84415562  .00000507  00000-0  52937-4 0  9999","MEAN_MOTION":"15.06383846","ARG_OF_PERICENTER":"85.8890","TIME_SYSTEM":"UTC","NORAD_CAT_ID":"47880","DECAY_DATE":null,"FILE":"3217982","RCS_SIZE":"LARGE","TLE_LINE2":"2 47880  53.0559 142.3819 0001501  85.8890 274.2270 15.06383846 38985","RA_OF_ASC_NODE":"142.3819","OBJECT_NAME":"STARLINK-2337","APOAPSIS":"548.303","BSTAR":"0.00005293700000","GP_ID":"189977743","INCLINATION":"53.0559","CLASSIFICATION_TYPE":"U","OBJECT_TYPE":"PAYLOAD"},{"GP_ID":"189975991","INCLINATION":"53.0706","CLASSIFICATION_TYPE":"U","APOAPSIS":"548.657","BSTAR":"-0.00006194800000","OBJECT_TYPE":"PAYLOAD","DECAY_DATE":null,"TIME_SYSTEM":"UTC","NORAD_CAT_ID":"47881","RCS_SIZE":"LARGE","TLE_LINE2":"2 47881  53.0706 142.2118 0002140  78.4047 281.7182 15.06412650 38951","OBJECT_NAME":"STARLINK-2339","RA_OF_ASC_NODE":"142.2118","FILE":"3217982","EPOCH":"2021-11-17T20:48:45.856224","MEAN_MOTION_DOT":"-0.00001205","REV_AT_EPOCH":"3895","CENTER_NAME":"EARTH","MEAN_ANOMALY":"281.7182","MEAN_MOTION":"15.06412650","ARG_OF_PERICENTER":"78.4047","MEAN_ELEMENT_THEORY":"SGP4","ECCENTRICITY":"0.00021400","TLE_LINE1":"1 47881U 21021X   21321.86719741 -.00001205  00000-0 -61948-4 0  9998","ELEMENT_SET_NO":"999","MEAN_MOTION_DDOT":"0.0000000000000","PERIAPSIS":"545.693","EPHEMERIS_TYPE":"0","REF_FRAME":"TEME","OBJECT_ID":"2021-021X","SITE":"AFETR","COUNTRY_CODE":"US","LAUNCH_DATE":"2021-03-14","PERIOD":"95.591","SEMIMAJOR_AXIS":"6925.310"},{"ARG_OF_PERICENTER":"90.2567","MEAN_MOTION":"15.06396681","ECCENTRICITY":"0.00016370","TLE_LINE1":"1 47882U 21021Y   21321.84233687  .00000778  00000-0  71154-4 0  9999","ELEMENT_SET_NO":"999","MEAN_ELEMENT_THEORY":"SGP4","REV_AT_EPOCH":"3929","MEAN_MOTION_DOT":"0.00000778","EPOCH":"2021-11-17T20:12:57.905568","CENTER_NAME":"EARTH","MEAN_ANOMALY":"269.8609","SITE":"AFETR","COUNTRY_CODE":"US","LAUNCH_DATE":"2021-03-14","PERIOD":"95.592","SEMIMAJOR_AXIS":"6925.359","EPHEMERIS_TYPE":"0","MEAN_MOTION_DDOT":"0.0000000000000","PERIAPSIS":"546.090","OBJECT_ID":"2021-021Y","REF_FRAME":"TEME","OBJECT_TYPE":"PAYLOAD","CLASSIFICATION_TYPE":"U","GP_ID":"189976241","INCLINATION":"53.0547","APOAPSIS":"548.357","BSTAR":"0.00007115400000","RA_OF_ASC_NODE":"132.3921","OBJECT_NAME":"STARLINK-2340","RCS_SIZE":"LARGE","TLE_LINE2":"2 47882  53.0547 132.3921 0001637  90.2567 269.8609 15.06396681 39290","FILE":"3217982","DECAY_DATE":null,"TIME_SYSTEM":"UTC","NORAD_CAT_ID":"47882"},{"PERIOD":"95.592","LAUNCH_DATE":"2021-03-14","SEMIMAJOR_AXIS":"6925.362","COUNTRY_CODE":"US","SITE":"AFETR","OBJECT_ID":"2021-021Z","REF_FRAME":"TEME","EPHEMERIS_TYPE":"0","PERIAPSIS":"546.031","MEAN_MOTION_DDOT":"0.0000000000000","ELEMENT_SET_NO":"999","TLE_LINE1":"1 47883U 21021Z   21321.88057372  .00000640  00000-0  61887-4 0  9999","ECCENTRICITY":"0.00017270","MEAN_ELEMENT_THEORY":"SGP4","ARG_OF_PERICENTER":"81.8662","MEAN_MOTION":"15.06395770","MEAN_ANOMALY":"278.2523","CENTER_NAME":"EARTH","REV_AT_EPOCH":"3923","MEAN_MOTION_DOT":"0.00000640","EPOCH":"2021-11-17T21:08:01.569408","FILE":"3217982","RA_OF_ASC_NODE":"137.2402","OBJECT_NAME":"STARLINK-2342","TLE_LINE2":"2 47883  53.0575 137.2402 0001727  81.8662 278.2523 15.06395770 39233","RCS_SIZE":"MEDIUM","NORAD_CAT_ID":"47883","TIME_SYSTEM":"UTC","DECAY_DATE":null,"OBJECT_TYPE":"PAYLOAD","BSTAR":"0.00006188700000","APOAPSIS":"548.423","CLASSIFICATION_TYPE":"U","INCLINATION":"53.0575","GP_ID":"189976990"},{"TIME_SYSTEM":"UTC","NORAD_CAT_ID":"47884","DECAY_DATE":null,"FILE":"3217982","RCS_SIZE":"LARGE","TLE_LINE2":"2 47884  53.0528 142.2991 0001853  80.1319 279.9879 15.06397171 38982","RA_OF_ASC_NODE":"142.2991","OBJECT_NAME":"STARLINK-2343","APOAPSIS":"548.505","BSTAR":"-0.00005234300000","INCLINATION":"53.0528","GP_ID":"189977243","CLASSIFICATION_TYPE":"U","OBJECT_TYPE":"PAYLOAD","REF_FRAME":"TEME","OBJECT_ID":"2021-021AA","MEAN_MOTION_DDOT":"0.0000000000000","PERIAPSIS":"545.939","EPHEMERIS_TYPE":"0","COUNTRY_CODE":"US","SITE":"AFETR","SEMIMAJOR_AXIS":"6925.357","LAUNCH_DATE":"2021-03-14","PERIOD":"95.592","CENTER_NAME":"EARTH","MEAN_ANOMALY":"279.9879","EPOCH":"2021-11-17T20:43:27.667488","MEAN_MOTION_DOT":"-0.00001061","REV_AT_EPOCH":"3898","MEAN_ELEMENT_THEORY":"SGP4","ECCENTRICITY":"0.00018530","TLE_LINE1":"1 47884U 21021AA  21321.86351467 -.00001061  00000-0 -52343-4 0  9997","ELEMENT_SET_NO":"999","MEAN_MOTION":"15.06397171","ARG_OF_PERICENTER":"80.1319"},{"CLASSIFICATION_TYPE":"U","INCLINATION":"53.0542","GP_ID":"189976492","APOAPSIS":"548.316","BSTAR":"0.00005743500000","OBJECT_TYPE":"PAYLOAD","DECAY_DATE":null,"TIME_SYSTEM":"UTC","NORAD_CAT_ID":"47885","OBJECT_NAME":"STARLINK-2344","RA_OF_ASC_NODE":"147.0280","RCS_SIZE":"LARGE","TLE_LINE2":"2 47885  53.0542 147.0280 0001577  73.2872 286.8290 15.06396575 39086","FILE":"3217982","MEAN_MOTION_DOT":"0.00000574","REV_AT_EPOCH":"3908","EPOCH":"2021-11-17T22:10:23.298528","CENTER_NAME":"EARTH","MEAN_ANOMALY":"286.8290","ARG_OF_PERICENTER":"73.2872","MEAN_MOTION":"15.06396575","ECCENTRICITY":"0.00015770","TLE_LINE1":"1 47885U 21021AB  21321.92388077  .00000574  00000-0  57435-4 0  9995","ELEMENT_SET_NO":"999","MEAN_ELEMENT_THEORY":"SGP4","EPHEMERIS_TYPE":"0","MEAN_MOTION_DDOT":"0.0000000000000","PERIAPSIS":"546.132","OBJECT_ID":"2021-021AB","REF_FRAME":"TEME","COUNTRY_CODE":"US","SITE":"AFETR","LAUNCH_DATE":"2021-03-14","PERIOD":"95.592","SEMIMAJOR_AXIS":"6925.359"},{"RCS_SIZE":"LARGE","TLE_LINE2":"2 47886  53.0548 137.3303 0001868  80.5944 279.5256 15.06396736 39063","OBJECT_NAME":"STARLINK-2345","RA_OF_ASC_NODE":"137.3303","FILE":"3217982","DECAY_DATE":null,"TIME_SYSTEM":"UTC","NORAD_CAT_ID":"47886","OBJECT_TYPE":"PAYLOAD","GP_ID":"189976742","INCLINATION":"53.0548","CLASSIFICATION_TYPE":"U","APOAPSIS":"548.517","BSTAR":"0.00006421500000","SITE":"AFETR","COUNTRY_CODE":"US","LAUNCH_DATE":"2021-03-14","PERIOD":"95.592","SEMIMAJOR_AXIS":"6925.359","MEAN_MOTION_DDOT":"0.0000000000000","PERIAPSIS":"545.930","EPHEMERIS_TYPE":"0","REF_FRAME":"TEME","OBJECT_ID":"2021-021AC","MEAN_MOTION":"15.06396736","ARG_OF_PERICENTER":"80.5944","MEAN_ELEMENT_THEORY":"SGP4","ECCENTRICITY":"0.00018680","TLE_LINE1":"1 47886U 21021AC  21321.85749934  .00000675  00000-0  64215-4 0  9997","ELEMENT_SET_NO":"999","EPOCH":"2021-11-17T20:34:47.942976","REV_AT_EPOCH":"3906","MEAN_MOTION_DOT":"0.00000675","CENTER_NAME":"EARTH","MEAN_ANOMALY":"279.5256"},{"ECCENTRICITY":"0.00018230","ELEMENT_SET_NO":"999","TLE_LINE1":"1 47887U 21021AD  21321.88195243  .00001104  00000-0  93010-4 0  9992","MEAN_ELEMENT_THEORY":"SGP4","ARG_OF_PERICENTER":"75.1170","MEAN_MOTION":"15.06389457","CENTER_NAME":"EARTH","MEAN_ANOMALY":"285.0021","MEAN_MOTION_DOT":"0.00001104","REV_AT_EPOCH":"3899","EPOCH":"2021-11-17T21:10:00.689952","COUNTRY_CODE":"US","SITE":"AFETR","PERIOD":"95.593","LAUNCH_DATE":"2021-03-14","SEMIMAJOR_AXIS":"6925.381","OBJECT_ID":"2021-021AD","REF_FRAME":"TEME","EPHEMERIS_TYPE":"0","MEAN_MOTION_DDOT":"0.0000000000000","PERIAPSIS":"545.983","OBJECT_TYPE":"PAYLOAD","APOAPSIS":"548.508","BSTAR":"0.00009301000000","CLASSIFICATION_TYPE":"U","GP_ID":"189977491","INCLINATION":"53.0566","FILE":"3217982","OBJECT_NAME":"STARLINK-2346","RA_OF_ASC_NODE":"142.2345","RCS_SIZE":"LARGE","TLE_LINE2":"2 47887  53.0566 142.2345 0001823  75.1170 285.0021 15.06389457 38992","TIME_SYSTEM":"UTC","NORAD_CAT_ID":"47887","DECAY_DATE":null},{"SEMIMAJOR_AXIS":"6925.373","LAUNCH_DATE":"2021-03-14","PERIOD":"95.593","SITE":"AFETR","COUNTRY_CODE":"US","REF_FRAME":"TEME","OBJECT_ID":"2021-021AE","PERIAPSIS":"546.264","MEAN_MOTION_DDOT":"0.0000000000000","EPHEMERIS_TYPE":"0","MEAN_ELEMENT_THEORY":"SGP4","ELEMENT_SET_NO":"999","TLE_LINE1":"1 47888U 21021AE  21321.77228770 -.00001046  00000-0 -51322-4 0  9990","ECCENTRICITY":"0.00014060","MEAN_MOTION":"15.06392016","ARG_OF_PERICENTER":"85.4914","MEAN_ANOMALY":"274.6235","CENTER_NAME":"EARTH","EPOCH":"2021-11-17T18:32:05.657280","REV_AT_EPOCH":"3912","MEAN_MOTION_DOT":"-0.00001046","FILE":"3217982","TLE_LINE2":"2 47888  53.0546 132.7089 0001406  85.4914 274.6235 15.06392016 39129","RCS_SIZE":"LARGE","OBJECT_NAME":"STARLINK-2348","RA_OF_ASC_NODE":"132.7089","NORAD_CAT_ID":"47888","TIME_SYSTEM":"UTC","DECAY_DATE":null,"OBJECT_TYPE":"PAYLOAD","BSTAR":"-0.00005132200000","APOAPSIS":"548.212","GP_ID":"189977744","INCLINATION":"53.0546","CLASSIFICATION_TYPE":"U"}];
